[{"OBJECT_NAME":"SDA_1684","OBJECT_ID":"2025-230W","EPOCH":"2026-03-09T22:42:30.839328","MEAN_MOTION":13.84530405,"ECCENTRICITY":0.00030032,"INCLINATION":81.3001,"RA_OF_ASC_NODE":303.7717,"ARG_OF_PERICENTER":64.2514,"MEAN_ANOMALY":295.8953,"EPHEMERIS_TYPE":0,"CLASSIFICATION_TYPE":"U","NORAD_CAT_ID":65994,"ELEMENT_SET_NO":999,"REV_AT_EPOCH":2007,"BSTAR":-0.026007307,"MEAN_MOTION_DOT":-0.00029027,"MEAN_MOTION_DDOT":0},{"OBJECT_NAME":"SL-14 R\/B","OBJECT_ID":"1988-005B","EPOCH":"2026-03-09T22:49:57.523008","MEAN_MOTION":13.85221307,"ECCENTRICITY":0.00147894,"INCLINATION":82.5418,"RA_OF_ASC_NODE":44.5521,"ARG_OF_PERICENTER":17.9788,"MEAN_ANOMALY":342.1893,"EPHEMERIS_TYPE":0,"CLASSIFICATION_TYPE":"U","NORAD_CAT_ID":18821,"ELEMENT_SET_NO":999,"REV_AT_EPOCH":92629,"BSTAR":2.7098608e-5,"MEAN_MOTION_DOT":4.6e-7,"MEAN_MOTION_DDOT":0}]
